LEMUR-2-MARACHE-FRAN    
1 63262U 25052BE  26068.70885648  .00008220  00000+0  68460-3 0  9999
2 63262  97.6985 323.5335 0002324  45.7689 314.3725 14.98898773 53859
STARLINK-34608          
1 64810U 25150W   26068.58274847  .00002720  00000+0  23570-3 0  9999
2 64810  70.0020 134.6149 0003269 266.7801  93.2984 14.98326574 36506
